{"type": "FeatureCollection", "features": [ {"type": "Feature", "properties": {"norad_id": 34141, "name": "COSMOS 2251 DEB", "group": "cosmos-2251-debris", "lat": 66.19609969944852, "lon": 85.04907208145808, "alt_km": 705.1957695164974, "timestamp": "2025-12-04T09:47:37.913569+00:00", "meta": {"OBJECT_NAME": "COSMOS 2251 DEB", "OBJECT_ID": "1993-036LN", "EPOCH": "2025-12-03T15:49:10.629120", "MEAN_MOTION": 14.49061898, "ECCENTRICITY": 0.00483795, "INCLINATION": 74.012, "RA_OF_ASC_NODE": 45.9185, "ARG_OF_PERICENTER": 135.0139, "MEAN_ANOMALY": 352.3392, "EPHEMERIS_TYPE": 0, "CLASSIFICATION_TYPE": "U", "NORAD_CAT_ID": 34141, "ELEMENT_SET_NO": 999, "REV_AT_EPOCH": 87562, "BSTAR": 0.0025470832, "MEAN_MOTION_DOT": 9.803e-05, "MEAN_MOTION_DDOT": 0}, "tle": {"line1": "1 34141U 93036LN  25337.65915080  .00009803  00000+0  25471-2 0  9998", "line2": "2 34141  74.0120  45.9185 0048379 135.0139 352.3392 14.49061898875629"}}, "geometry": {"type": "Point", "coordinates": [85.04907208145808, 66.19609969944852]}}, {"type": "Feature", "properties": {"norad_id": 34270, "name": "COSMOS 2251 DEB", "group": "cosmos-2251-debris", "lat": -73.94103001102097, "lon": -122.22240868775705, "alt_km": 713.8776414226904, "timestamp": "2025-12-04T09:47:37.913579+00:00", "meta": {"OBJECT_NAME": "COSMOS 2251 DEB", "OBJECT_ID": "1993-036LQ", "EPOCH": "2025-12-03T09:37:07.991616", "MEAN_MOTION": 14.65081948, "ECCENTRICITY": 0.00478481, "INCLINATION": 74.0113, "RA_OF_ASC_NODE": 324.6227, "ARG_OF_PERICENTER": 120.2849, "MEAN_ANOMALY": 240.3067, "EPHEMERIS_TYPE": 0, "CLASSIFICATION_TYPE": "U", "NORAD_CAT_ID": 34270, "ELEMENT_SET_NO": 999, "REV_AT_EPOCH": 88959, "BSTAR": 0.00070844458, "MEAN_MOTION_DOT": 3.838e-05, "MEAN_MOTION_DDOT": 0}, "tle": {"line1": "1 34270U 93036LQ  25337.40078694  .00003838  00000+0  70844-3 0  9992", "line2": "2 34270  74.0113 324.6227 0047848 120.2849 240.3067 14.65081948889594"}}, "geometry": {"type": "Point", "coordinates": [-122.22240868775705, -73.94103001102097]}}, {"type": "Feature", "properties": {"norad_id": 34271, "name": "COSMOS 2251 DEB", "group": "cosmos-2251-debris", "lat": 49.60778733567035, "lon": -124.80639890729043, "alt_km": 665.7541149275085, "timestamp": "2025-12-04T09:47:37.913589+00:00", "meta": {"OBJECT_NAME": "COSMOS 2251 DEB", "OBJECT_ID": "1993-036LR", "EPOCH": "2025-12-03T03:13:29.779680", "MEAN_MOTION": 14.70407197, "ECCENTRICITY": 0.0019792, "INCLINATION": 74.0207, "RA_OF_ASC_NODE": 217.985, "ARG_OF_PERICENTER": 273.2081, "MEAN_ANOMALY": 239.5046, "EPHEMERIS_TYPE": 0, "CLASSIFICATION_TYPE": "U", "NORAD_CAT_ID": 34271, "ELEMENT_SET_NO": 999, "REV_AT_EPOCH": 88093, "BSTAR": 0.0025987006, "MEAN_MOTION_DOT": 0.00015783, "MEAN_MOTION_DDOT": 0}, "tle": {"line1": "1 34271U 93036LR  25337.13437245  .00015783  00000+0  25987-2 0  9993", "line2": "2 34271  74.0207 217.9850 0019792 273.2081 239.5046 14.70407197880939"}}, "geometry": {"type": "Point", "coordinates": [-124.80639890729043, 49.60778733567035]}}, {"type": "Feature", "properties": {"norad_id": 34273, "name": "COSMOS 2251 DEB", "group": "cosmos-2251-debris", "lat": -4.488158250098852, "lon": 102.06758005339717, "alt_km": 698.9885911837355, "timestamp": "2025-12-04T09:47:37.913599+00:00", "meta": {"OBJECT_NAME": "COSMOS 2251 DEB", "OBJECT_ID": "1993-036LT", "EPOCH": "2025-12-04T02:24:21.307104", "MEAN_MOTION": 14.61084508, "ECCENTRICITY": 0.0014487, "INCLINATION": 74.0347, "RA_OF_ASC_NODE": 103.9434, "ARG_OF_PERICENTER": 229.286, "MEAN_ANOMALY": 307.5298, "EPHEMERIS_TYPE": 0, "CLASSIFICATION_TYPE": "U", "NORAD_CAT_ID": 34273, "ELEMENT_SET_NO": 999, "REV_AT_EPOCH": 88495, "BSTAR": 0.0022635, "MEAN_MOTION_DOT": 0.00011129, "MEAN_MOTION_DDOT": 0}, "tle": {"line1": "1 34273U 93036LT  25338.10024661  .00011129  00000+0  22635-2 0  9994", "line2": "2 34273  74.0347 103.9434 0014487 229.2860 307.5298 14.61084508884958"}}, "geometry": {"type": "Point", "coordinates": [102.06758005339717, -4.488158250098852]}}, {"type": "Feature", "properties": {"norad_id": 34274, "name": "COSMOS 2251 DEB", "group": "cosmos-2251-debris", "lat": -27.2533082361421, "lon": 76.12032155053957, "alt_km": 685.6263446974936, "timestamp": "2025-12-04T09:47:37.913609+00:00", "meta": {"OBJECT_NAME": "COSMOS 2251 DEB", "OBJECT_ID": "1993-036LU", "EPOCH": "2025-12-04T00:53:58.519104", "MEAN_MOTION": 14.64596746, "ECCENTRICITY": 0.0022501, "INCLINATION": 74.0047, "RA_OF_ASC_NODE": 85.3307, "ARG_OF_PERICENTER": 235.5578, "MEAN_ANOMALY": 302.6623, "EPHEMERIS_TYPE": 0, "CLASSIFICATION_TYPE": "U", "NORAD_CAT_ID": 34274, "ELEMENT_SET_NO": 999, "REV_AT_EPOCH": 88548, "BSTAR": 0.0027325, "MEAN_MOTION_DOT": 0.00014566, "MEAN_MOTION_DDOT": 0}, "tle": {"line1": "1 34274U 93036LU  25338.03748286  .00014566  00000+0  27325-2 0  9992", "line2": "2 34274  74.0047  85.3307 0022501 235.5578 302.6623 14.64596746885482"}}, "geometry": {"type": "Point", "coordinates": [76.12032155053957, -27.2533082361421]}}, {"type": "Feature", "properties": {"norad_id": 34276, "name": "COSMOS 2251 DEB", "group": "cosmos-2251-debris", "lat": 43.570471774854404, "lon": -94.65666032028126, "alt_km": 705.0259959199275, "timestamp": "2025-12-04T09:47:37.913619+00:00", "meta": {"OBJECT_NAME": "COSMOS 2251 DEB", "OBJECT_ID": "1993-036LW", "EPOCH": "2025-12-03T12:18:44.712864", "MEAN_MOTION": 14.57112941, "ECCENTRICITY": 0.00227996, "INCLINATION": 74.0226, "RA_OF_ASC_NODE": 102.8605, "ARG_OF_PERICENTER": 250.0797, "MEAN_ANOMALY": 231.05, "EPHEMERIS_TYPE": 0, "CLASSIFICATION_TYPE": "U", "NORAD_CAT_ID": 34276, "ELEMENT_SET_NO": 999, "REV_AT_EPOCH": 88458, "BSTAR": 0.0013863393, "MEAN_MOTION_DOT": 6.247e-05, "MEAN_MOTION_DDOT": 0}, "tle": {"line1": "1 34276U 93036LW  25337.51301751  .00006247  00000+0  13863-2 0  9997", "line2": "2 34276  74.0226 102.8605 0022799 250.0797 231.0500 14.57112941884585"}}, "geometry": {"type": "Point", "coordinates": [-94.65666032028126, 43.570471774854404]}}, {"type": "Feature", "properties": {"norad_id": 34297, "name": "COSMOS 2251 DEB", "group": "cosmos-2251-debris", "lat": 40.625151444897945, "lon": -46.26450493557213, "alt_km": 755.973409029647, "timestamp": "2025-12-04T09:47:37.913629+00:00", "meta": {"OBJECT_NAME": "COSMOS 2251 DEB", "OBJECT_ID": "1993-036MT", "EPOCH": "2025-12-03T22:11:54.667392", "MEAN_MOTION": 14.36616527, "ECCENTRICITY": 0.00168761, "INCLINATION": 74.0482, "RA_OF_ASC_NODE": 300.4188, "ARG_OF_PERICENTER": 11.0379, "MEAN_ANOMALY": 53.8593, "EPHEMERIS_TYPE": 0, "CLASSIFICATION_TYPE": "U", "NORAD_CAT_ID": 34297, "ELEMENT_SET_NO": 999, "REV_AT_EPOCH": 87938, "BSTAR": 0.00026604757, "MEAN_MOTION_DOT": 7.58e-06, "MEAN_MOTION_DDOT": 0}, "tle": {"line1": "1 34297U 93036MT  25337.92493828  .00000758  00000+0  26605-3 0  9992", "line2": "2 34297  74.0482 300.4188 0016876  11.0379  53.8593 14.36616527879384"}}, "geometry": {"type": "Point", "coordinates": [-46.26450493557213, 40.625151444897945]}}, {"type": "Feature", "properties": {"norad_id": 34299, "name": "COSMOS 2251 DEB", "group": "cosmos-2251-debris", "lat": 12.693658417325423, "lon": -2.9576660143378652, "alt_km": 376.6285639364105, "timestamp": "2025-12-04T09:47:37.913643+00:00", "meta": {"OBJECT_NAME": "COSMOS 2251 DEB", "OBJECT_ID": "1993-036MV", "EPOCH": "2025-12-03T18:20:39.471072", "MEAN_MOTION": 15.59453023, "ECCENTRICITY": 0.00248515, "INCLINATION": 73.9824, "RA_OF_ASC_NODE": 354.7694, "ARG_OF_PERICENTER": 61.8782, "MEAN_ANOMALY": 298.4942, "EPHEMERIS_TYPE": 0, "CLASSIFICATION_TYPE": "U", "NORAD_CAT_ID": 34299, "ELEMENT_SET_NO": 999, "REV_AT_EPOCH": 88870, "BSTAR": 0.0070140091, "MEAN_MOTION_DOT": 0.00605616, "MEAN_MOTION_DDOT": 0}, "tle": {"line1": "1 34299U 93036MV  25337.76434573  .00605616  00000+0  70140-2 0  9994", "line2": "2 34299  73.9824 354.7694 0024851  61.8782 298.4942 15.59453023888708"}}, "geometry": {"type": "Point", "coordinates": [-2.9576660143378652, 12.693658417325423]}}, {"type": "Feature", "properties": {"norad_id": 34301, "name": "COSMOS 2251 DEB", "group": "cosmos-2251-debris", "lat": 1.6091134002886858, "lon": -176.28485804589224, "alt_km": 623.9566349816278, "timestamp": "2025-12-04T09:47:37.913654+00:00", "meta": {"OBJECT_NAME": "COSMOS 2251 DEB", "OBJECT_ID": "1993-036MX", "EPOCH": "2025-12-03T00:29:19.044384", "MEAN_MOTION": 14.837811, "ECCENTRICITY": 0.00124006, "INCLINATION": 74.0064, "RA_OF_ASC_NODE": 186.0071, "ARG_OF_PERICENTER": 244.9578, "MEAN_ANOMALY": 266.9815, "EPHEMERIS_TYPE": 0, "CLASSIFICATION_TYPE": "U", "NORAD_CAT_ID": 34301, "ELEMENT_SET_NO": 999, "REV_AT_EPOCH": 88256, "BSTAR": 0.0031794263, "MEAN_MOTION_DOT": 0.00026438, "MEAN_MOTION_DDOT": 0}, "tle": {"line1": "1 34301U 93036MX  25337.02035931  .00026438  00000+0  31794-2 0  9993", "line2": "2 34301  74.0064 186.0071 0012400 244.9578 266.9815 14.83781100882562"}}, "geometry": {"type": "Point", "coordinates": [-176.28485804589224, 1.6091134002886858]}}, {"type": "Feature", "properties": {"norad_id": 34302, "name": "COSMOS 2251 DEB", "group": "cosmos-2251-debris", "lat": -2.837288399467259, "lon": 138.02013962395034, "alt_km": 708.008104866547, "timestamp": "2025-12-04T09:47:37.913665+00:00", "meta": {"OBJECT_NAME": "COSMOS 2251 DEB", "OBJECT_ID": "1993-036MY", "EPOCH": "2025-12-03T21:01:43.707648", "MEAN_MOTION": 14.3927538, "ECCENTRICITY": 0.00782419, "INCLINATION": 74.1773, "RA_OF_ASC_NODE": 139.7983, "ARG_OF_PERICENTER": 357.6219, "MEAN_ANOMALY": 124.7901, "EPHEMERIS_TYPE": 0, "CLASSIFICATION_TYPE": "U", "NORAD_CAT_ID": 34302, "ELEMENT_SET_NO": 999, "REV_AT_EPOCH": 87593, "BSTAR": 0.00096226506, "MEAN_MOTION_DOT": 3.071e-05, "MEAN_MOTION_DDOT": 0}, "tle": {"line1": "1 34302U 93036MY  25337.87620032  .00003071  00000+0  96227-3 0  9990", "line2": "2 34302  74.1773 139.7983 0078241 357.6219 124.7901 14.39275380875936"}}, "geometry": {"type": "Point", "coordinates": [138.02013962395034, -2.837288399467259]}}]}